{"type": "FeatureCollection", "features": [ {"type": "Feature", "properties": {"norad_id": 32126, "name": "FENGYUN 1C DEB", "group": "fengyun-1c-debris", "lat": 78.2952977178113, "lon": -177.70315596159756, "alt_km": 1207.7662936735014, "timestamp": "2025-12-23T18:59:32.252195+00:00", "meta": {"OBJECT_NAME": "FENGYUN 1C DEB", "OBJECT_ID": "1999-025CRU", "EPOCH": "2025-12-14T22:11:18.681792", "MEAN_MOTION": 13.56802944, "ECCENTRICITY": 0.02807648, "INCLINATION": 99.1097, "RA_OF_ASC_NODE": 224.8335, "ARG_OF_PERICENTER": 249.9124, "MEAN_ANOMALY": 107.16, "EPHEMERIS_TYPE": 0, "CLASSIFICATION_TYPE": "U", "NORAD_CAT_ID": 32126, "ELEMENT_SET_NO": 999, "REV_AT_EPOCH": 61744, "BSTAR": 0.001056147, "MEAN_MOTION_DOT": 9.24e-06, "MEAN_MOTION_DDOT": 0}, "tle": {"line1": "1 32126U 99025CRU 25348.92452178  .00000924  00000+0  10561-2 0  9998", "line2": "2 32126  99.1097 224.8335 0280764 249.9124 107.1600 13.56802944617445"}}, "geometry": {"type": "Point", "coordinates": [-177.70315596159756, 78.2952977178113]}}, {"type": "Feature", "properties": {"norad_id": 32128, "name": "FENGYUN 1C DEB", "group": "fengyun-1c-debris", "lat": 66.79625551640123, "lon": 22.025771489701736, "alt_km": 1061.158828979902, "timestamp": "2025-12-23T18:59:32.252204+00:00", "meta": {"OBJECT_NAME": "FENGYUN 1C DEB", "OBJECT_ID": "1999-025CRW", "EPOCH": "2025-12-20T09:41:23.072928", "MEAN_MOTION": 13.94238762, "ECCENTRICITY": 0.03974232, "INCLINATION": 99.0297, "RA_OF_ASC_NODE": 40.4784, "ARG_OF_PERICENTER": 201.8481, "MEAN_ANOMALY": 156.5315, "EPHEMERIS_TYPE": 0, "CLASSIFICATION_TYPE": "U", "NORAD_CAT_ID": 32128, "ELEMENT_SET_NO": 999, "REV_AT_EPOCH": 63092, "BSTAR": 0.00046296594, "MEAN_MOTION_DOT": 1.138e-05, "MEAN_MOTION_DDOT": 0}, "tle": {"line1": "1 32128U 99025CRW 25354.40373927  .00001138  00000+0  46297-3 0  9998", "line2": "2 32128  99.0297  40.4784 0397423 201.8481 156.5315 13.94238762630924"}}, "geometry": {"type": "Point", "coordinates": [22.025771489701736, 66.79625551640123]}}, {"type": "Feature", "properties": {"norad_id": 32129, "name": "FENGYUN 1C DEB", "group": "fengyun-1c-debris", "lat": -66.28830382495133, "lon": -84.68685645705055, "alt_km": 822.911561534399, "timestamp": "2025-12-23T18:59:32.252213+00:00", "meta": {"OBJECT_NAME": "FENGYUN 1C DEB", "OBJECT_ID": "1999-025CRX", "EPOCH": "2025-12-20T21:30:21.508992", "MEAN_MOTION": 14.28569104, "ECCENTRICITY": 0.0067404, "INCLINATION": 99.0578, "RA_OF_ASC_NODE": 113.6057, "ARG_OF_PERICENTER": 10.1346, "MEAN_ANOMALY": 116.8908, "EPHEMERIS_TYPE": 0, "CLASSIFICATION_TYPE": "U", "NORAD_CAT_ID": 32129, "ELEMENT_SET_NO": 999, "REV_AT_EPOCH": 94343, "BSTAR": 0.0012789, "MEAN_MOTION_DOT": 3.241e-05, "MEAN_MOTION_DDOT": 0}, "tle": {"line1": "1 32129U 99025CRX 25354.89608228  .00003241  00000+0  12789-2 0  9992", "line2": "2 32129  99.0578 113.6057 0067404  10.1346 116.8908 14.28569104943432"}}, "geometry": {"type": "Point", "coordinates": [-84.68685645705055, -66.28830382495133]}}, {"type": "Feature", "properties": {"norad_id": 32130, "name": "FENGYUN 1C DEB", "group": "fengyun-1c-debris", "lat": 65.52927899124002, "lon": 4.843630663436969, "alt_km": 818.7167454308774, "timestamp": "2025-12-23T18:59:32.252222+00:00", "meta": {"OBJECT_NAME": "FENGYUN 1C DEB", "OBJECT_ID": "1999-025CRY", "EPOCH": "2025-12-23T05:06:08.424000", "MEAN_MOTION": 14.37574632, "ECCENTRICITY": 0.00823019, "INCLINATION": 98.9036, "RA_OF_ASC_NODE": 164.0964, "ARG_OF_PERICENTER": 299.0808, "MEAN_ANOMALY": 60.2154, "EPHEMERIS_TYPE": 0, "CLASSIFICATION_TYPE": "U", "NORAD_CAT_ID": 32130, "ELEMENT_SET_NO": 999, "REV_AT_EPOCH": 96385, "BSTAR": 0.00041548421, "MEAN_MOTION_DOT": 1.246e-05, "MEAN_MOTION_DDOT": 0}, "tle": {"line1": "1 32130U 99025CRY 25357.21259750  .00001246  00000+0  41548-3 0  9994", "line2": "2 32130  98.9036 164.0964 0082301 299.0808  60.2154 14.37574632963857"}}, "geometry": {"type": "Point", "coordinates": [4.843630663436969, 65.52927899124002]}}, {"type": "Feature", "properties": {"norad_id": 32133, "name": "FENGYUN 1C DEB", "group": "fengyun-1c-debris", "lat": 70.85086173387089, "lon": -26.842422331783983, "alt_km": 798.7752327863664, "timestamp": "2025-12-23T18:59:32.252231+00:00", "meta": {"OBJECT_NAME": "FENGYUN 1C DEB", "OBJECT_ID": "1999-025CSB", "EPOCH": "2025-12-21T17:32:39.049728", "MEAN_MOTION": 14.18078219, "ECCENTRICITY": 0.0036401, "INCLINATION": 98.4317, "RA_OF_ASC_NODE": 356.4878, "ARG_OF_PERICENTER": 75.6305, "MEAN_ANOMALY": 284.8907, "EPHEMERIS_TYPE": 0, "CLASSIFICATION_TYPE": "U", "NORAD_CAT_ID": 32133, "ELEMENT_SET_NO": 999, "REV_AT_EPOCH": 95102, "BSTAR": 0.00015170925, "MEAN_MOTION_DOT": 2.72e-06, "MEAN_MOTION_DDOT": 0}, "tle": {"line1": "1 32133U 99025CSB 25355.73100752  .00000272  00000+0  15171-3 0  9990", "line2": "2 32133  98.4317 356.4878 0036401  75.6305 284.8907 14.18078219951023"}}, "geometry": {"type": "Point", "coordinates": [-26.842422331783983, 70.85086173387089]}}, {"type": "Feature", "properties": {"norad_id": 32134, "name": "FENGYUN 1C DEB", "group": "fengyun-1c-debris", "lat": 61.22547900597661, "lon": -15.274676283496708, "alt_km": 996.8873852767028, "timestamp": "2025-12-23T18:59:32.252240+00:00", "meta": {"OBJECT_NAME": "FENGYUN 1C DEB", "OBJECT_ID": "1999-025CSC", "EPOCH": "2025-12-20T18:54:49.283424", "MEAN_MOTION": 14.21581722, "ECCENTRICITY": 0.02590569, "INCLINATION": 98.5942, "RA_OF_ASC_NODE": 357.7817, "ARG_OF_PERICENTER": 240.187, "MEAN_ANOMALY": 301.7101, "EPHEMERIS_TYPE": 0, "CLASSIFICATION_TYPE": "U", "NORAD_CAT_ID": 32134, "ELEMENT_SET_NO": 999, "REV_AT_EPOCH": 95261, "BSTAR": 0.00035063748, "MEAN_MOTION_DOT": 1.03e-05, "MEAN_MOTION_DDOT": 0}, "tle": {"line1": "1 32134U 99025CSC 25354.78807041  .00001030  00000+0  35064-3 0  9996", "line2": "2 32134  98.5942 357.7817 0259056 240.1870 301.7101 14.21581722952618"}}, "geometry": {"type": "Point", "coordinates": [-15.274676283496708, 61.22547900597661]}}, {"type": "Feature", "properties": {"norad_id": 32137, "name": "FENGYUN 1C DEB", "group": "fengyun-1c-debris", "lat": 54.11847459416506, "lon": 113.78112315805878, "alt_km": 545.8138211193063, "timestamp": "2025-12-23T18:59:32.252249+00:00", "meta": {"OBJECT_NAME": "FENGYUN 1C DEB", "OBJECT_ID": "1999-025CSF", "EPOCH": "2025-12-23T02:32:31.228800", "MEAN_MOTION": 14.81363769, "ECCENTRICITY": 0.01866336, "INCLINATION": 98.4426, "RA_OF_ASC_NODE": 124.9072, "ARG_OF_PERICENTER": 0.8839, "MEAN_ANOMALY": 359.2666, "EPHEMERIS_TYPE": 0, "CLASSIFICATION_TYPE": "U", "NORAD_CAT_ID": 32137, "ELEMENT_SET_NO": 999, "REV_AT_EPOCH": 66884, "BSTAR": 0.00071247012, "MEAN_MOTION_DOT": 7.465e-05, "MEAN_MOTION_DDOT": 0}, "tle": {"line1": "1 32137U 99025CSF 25357.10591700  .00007465  00000+0  71247-3 0  9991", "line2": "2 32137  98.4426 124.9072 0186633   0.8839 359.2666 14.81363769668848"}}, "geometry": {"type": "Point", "coordinates": [113.78112315805878, 54.11847459416506]}}, {"type": "Feature", "properties": {"norad_id": 32143, "name": "FENGYUN 1C DEB", "group": "fengyun-1c-debris", "lat": 1.9098185686221252, "lon": -25.91215891276925, "alt_km": 814.6396693928991, "timestamp": "2025-12-23T18:59:32.252258+00:00", "meta": {"OBJECT_NAME": "FENGYUN 1C DEB", "OBJECT_ID": "1999-025CSM", "EPOCH": "2025-12-22T15:53:13.985088", "MEAN_MOTION": 14.17977849, "ECCENTRICITY": 0.01046236, "INCLINATION": 98.598, "RA_OF_ASC_NODE": 333.2831, "ARG_OF_PERICENTER": 80.3341, "MEAN_ANOMALY": 280.9635, "EPHEMERIS_TYPE": 0, "CLASSIFICATION_TYPE": "U", "NORAD_CAT_ID": 32143, "ELEMENT_SET_NO": 999, "REV_AT_EPOCH": 96074, "BSTAR": 0.00015176615, "MEAN_MOTION_DOT": 2.86e-06, "MEAN_MOTION_DDOT": 0}, "tle": {"line1": "1 32143U 99025CSM 25356.66196742  .00000286  00000+0  15177-3 0  9999", "line2": "2 32143  98.5980 333.2831 0104623  80.3341 280.9635 14.17977849960748"}}, "geometry": {"type": "Point", "coordinates": [-25.91215891276925, 1.9098185686221252]}}, {"type": "Feature", "properties": {"norad_id": 32150, "name": "FENGYUN 1C DEB", "group": "fengyun-1c-debris", "lat": 79.63787733891111, "lon": -95.82440079199867, "alt_km": 622.3196366537932, "timestamp": "2025-12-23T18:59:32.252267+00:00", "meta": {"OBJECT_NAME": "FENGYUN 1C DEB", "OBJECT_ID": "1999-025CSU", "EPOCH": "2025-12-17T19:32:44.216160", "MEAN_MOTION": 14.60679601, "ECCENTRICITY": 0.01717549, "INCLINATION": 99.1924, "RA_OF_ASC_NODE": 15.2172, "ARG_OF_PERICENTER": 52.3233, "MEAN_ANOMALY": 309.3402, "EPHEMERIS_TYPE": 0, "CLASSIFICATION_TYPE": "U", "NORAD_CAT_ID": 32150, "ELEMENT_SET_NO": 999, "REV_AT_EPOCH": 97780, "BSTAR": 0.00013273529, "MEAN_MOTION_DOT": 7.28e-06, "MEAN_MOTION_DDOT": 0}, "tle": {"line1": "1 32150U 99025CSU 25351.81440065  .00000728  00000+0  13274-3 0  9996", "line2": "2 32150  99.1924  15.2172 0171754  52.3233 309.3402 14.60679601977800"}}, "geometry": {"type": "Point", "coordinates": [-95.82440079199867, 79.63787733891111]}}, {"type": "Feature", "properties": {"norad_id": 32152, "name": "FENGYUN 1C DEB", "group": "fengyun-1c-debris", "lat": 51.21916623394753, "lon": -9.438169322401688, "alt_km": 668.5452153171391, "timestamp": "2025-12-23T18:59:32.252276+00:00", "meta": {"OBJECT_NAME": "FENGYUN 1C DEB", "OBJECT_ID": "1999-025CSW", "EPOCH": "2025-12-21T05:25:01.444224", "MEAN_MOTION": 14.56838784, "ECCENTRICITY": 0.00551981, "INCLINATION": 98.7603, "RA_OF_ASC_NODE": 156.8014, "ARG_OF_PERICENTER": 175.7831, "MEAN_ANOMALY": 184.3842, "EPHEMERIS_TYPE": 0, "CLASSIFICATION_TYPE": "U", "NORAD_CAT_ID": 32152, "ELEMENT_SET_NO": 999, "REV_AT_EPOCH": 62736, "BSTAR": 0.0014652442, "MEAN_MOTION_DOT": 6.654e-05, "MEAN_MOTION_DDOT": 0}, "tle": {"line1": "1 32152U 99025CSW 25355.22571116  .00006654  00000+0  14652-2 0  9993", "line2": "2 32152  98.7603 156.8014 0055198 175.7831 184.3842 14.56838784627361"}}, "geometry": {"type": "Point", "coordinates": [-9.438169322401688, 51.21916623394753]}}]}